[{"OBJECT_NAME":"STARLINK-31027","OBJECT_ID":"2024-002R","EPOCH":"2026-03-09T22:00:01.999584","MEAN_MOTION":15.45998689,"ECCENTRICITY":0.00079886,"INCLINATION":53.1522,"RA_OF_ASC_NODE":225.4344,"ARG_OF_PERICENTER":289.077,"MEAN_ANOMALY":243.8971,"EPHEMERIS_TYPE":0,"CLASSIFICATION_TYPE":"U","NORAD_CAT_ID":58720,"ELEMENT_SET_NO":999,"REV_AT_EPOCH":583,"BSTAR":0.0053254112,"MEAN_MOTION_DOT":0.00273248,"MEAN_MOTION_DDOT":0},{"OBJECT_NAME":"STARLINK-36740","OBJECT_ID":"2026-026W","EPOCH":"2026-03-09T22:00:01.999584","MEAN_MOTION":15.491207,"ECCENTRICITY":0.00015501,"INCLINATION":97.2857,"RA_OF_ASC_NODE":123.4973,"ARG_OF_PERICENTER":83.5732,"MEAN_ANOMALY":115.3118,"EPHEMERIS_TYPE":0,"CLASSIFICATION_TYPE":"U","NORAD_CAT_ID":67741,"ELEMENT_SET_NO":999,"REV_AT_EPOCH":535,"BSTAR":0.0017457261,"MEAN_MOTION_DOT":0.00095789,"MEAN_MOTION_DDOT":0}]
